[{"OBJECT_NAME":"STARLINK-36246","OBJECT_ID":"2026-037H","EPOCH":"2026-03-11T06:00:02.000160","MEAN_MOTION":15.81984242,"ECCENTRICITY":0.0001708,"INCLINATION":42.9981,"RA_OF_ASC_NODE":188.9398,"ARG_OF_PERICENTER":245.5852,"MEAN_ANOMALY":313.3003,"EPHEMERIS_TYPE":0,"CLASSIFICATION_TYPE":"U","NORAD_CAT_ID":67939,"ELEMENT_SET_NO":999,"REV_AT_EPOCH":336,"BSTAR":0.00017577427,"MEAN_MOTION_DOT":0.0003658,"MEAN_MOTION_DDOT":0},{"OBJECT_NAME":"STARLINK-36907","OBJECT_ID":"2026-037J","EPOCH":"2026-03-11T06:00:02.000160","MEAN_MOTION":15.81992291,"ECCENTRICITY":0.00016384,"INCLINATION":42.9983,"RA_OF_ASC_NODE":188.9065,"ARG_OF_PERICENTER":271.9922,"MEAN_ANOMALY":299.7115,"EPHEMERIS_TYPE":0,"CLASSIFICATION_TYPE":"U","NORAD_CAT_ID":67940,"ELEMENT_SET_NO":999,"REV_AT_EPOCH":344,"BSTAR":9.5199219e-5,"MEAN_MOTION_DOT":0.00019535,"MEAN_MOTION_DDOT":0},{"OBJECT_NAME":"STARLINK-36927","OBJECT_ID":"2026-037K","EPOCH":"2026-03-11T06:00:02.000160","MEAN_MOTION":15.8197338,"ECCENTRICITY":0.0001659,"INCLINATION":42.9983,"RA_OF_ASC_NODE":188.8849,"ARG_OF_PERICENTER":268.5436,"MEAN_ANOMALY":311.6997,"EPHEMERIS_TYPE":0,"CLASSIFICATION_TYPE":"U","NORAD_CAT_ID":67941,"ELEMENT_SET_NO":999,"REV_AT_EPOCH":344,"BSTAR":0.00032051409,"MEAN_MOTION_DOT":0.00067347,"MEAN_MOTION_DDOT":0},{"OBJECT_NAME":"STARLINK-36914","OBJECT_ID":"2026-037L","EPOCH":"2026-03-11T06:00:02.000160","MEAN_MOTION":15.81965246,"ECCENTRICITY":0.00013038,"INCLINATION":42.9981,"RA_OF_ASC_NODE":188.9286,"ARG_OF_PERICENTER":258.3043,"MEAN_ANOMALY":304.8545,"EPHEMERIS_TYPE":0,"CLASSIFICATION_TYPE":"U","NORAD_CAT_ID":67942,"ELEMENT_SET_NO":999,"REV_AT_EPOCH":344,"BSTAR":0.00050737902,"MEAN_MOTION_DOT":0.00107379,"MEAN_MOTION_DDOT":0},{"OBJECT_NAME":"STARLINK-36851","OBJECT_ID":"2026-037M","EPOCH":"2026-03-11T06:00:02.000160","MEAN_MOTION":15.81970152,"ECCENTRICITY":0.00010675,"INCLINATION":42.9983,"RA_OF_ASC_NODE":188.9179,"ARG_OF_PERICENTER":252.7375,"MEAN_ANOMALY":314.694,"EPHEMERIS_TYPE":0,"CLASSIFICATION_TYPE":"U","NORAD_CAT_ID":67943,"ELEMENT_SET_NO":999,"REV_AT_EPOCH":344,"BSTAR":0.00036184264,"MEAN_MOTION_DOT":0.00076164,"MEAN_MOTION_DDOT":0},{"OBJECT_NAME":"STARLINK-36892","OBJECT_ID":"2026-037N","EPOCH":"2026-03-11T06:00:02.000160","MEAN_MOTION":15.81995567,"ECCENTRICITY":0.00011617,"INCLINATION":42.9982,"RA_OF_ASC_NODE":188.8967,"ARG_OF_PERICENTER":287.7188,"MEAN_ANOMALY":288.2532,"EPHEMERIS_TYPE":0,"CLASSIFICATION_TYPE":"U","NORAD_CAT_ID":67944,"ELEMENT_SET_NO":999,"REV_AT_EPOCH":344,"BSTAR":0.00013732291,"MEAN_MOTION_DOT":0.00028449,"MEAN_MOTION_DDOT":0},{"OBJECT_NAME":"STARLINK-36908","OBJECT_ID":"2026-037P","EPOCH":"2026-03-11T06:00:02.000160","MEAN_MOTION":15.81967323,"ECCENTRICITY":0.00016915,"INCLINATION":42.9985,"RA_OF_ASC_NODE":188.8746,"ARG_OF_PERICENTER":252.3344,"MEAN_ANOMALY":332.1928,"EPHEMERIS_TYPE":0,"CLASSIFICATION_TYPE":"U","NORAD_CAT_ID":67945,"ELEMENT_SET_NO":999,"REV_AT_EPOCH":344,"BSTAR":0.00036479457,"MEAN_MOTION_DOT":0.00076788,"MEAN_MOTION_DDOT":0},{"OBJECT_NAME":"STARLINK-36909","OBJECT_ID":"2026-037Q","EPOCH":"2026-03-11T06:00:02.000160","MEAN_MOTION":15.81987859,"ECCENTRICITY":0.00014962,"INCLINATION":42.9983,"RA_OF_ASC_NODE":188.8642,"ARG_OF_PERICENTER":257.6314,"MEAN_ANOMALY":331.1609,"EPHEMERIS_TYPE":0,"CLASSIFICATION_TYPE":"U","NORAD_CAT_ID":67946,"ELEMENT_SET_NO":999,"REV_AT_EPOCH":344,"BSTAR":0.00016306121,"MEAN_MOTION_DOT":0.00033891,"MEAN_MOTION_DDOT":0},{"OBJECT_NAME":"STARLINK-36920","OBJECT_ID":"2026-037R","EPOCH":"2026-03-11T06:00:02.000160","MEAN_MOTION":15.82000186,"ECCENTRICITY":0.00016066,"INCLINATION":42.9984,"RA_OF_ASC_NODE":188.853,"ARG_OF_PERICENTER":252.7357,"MEAN_ANOMALY":340.3257,"EPHEMERIS_TYPE":0,"CLASSIFICATION_TYPE":"U","NORAD_CAT_ID":67947,"ELEMENT_SET_NO":999,"REV_AT_EPOCH":344,"BSTAR":8.7733128e-5,"MEAN_MOTION_DOT":0.00017965,"MEAN_MOTION_DDOT":0},{"OBJECT_NAME":"STARLINK-36873","OBJECT_ID":"2026-037S","EPOCH":"2026-03-11T06:00:02.000160","MEAN_MOTION":15.81968289,"ECCENTRICITY":0.00015829,"INCLINATION":42.9984,"RA_OF_ASC_NODE":188.8424,"ARG_OF_PERICENTER":259.8274,"MEAN_ANOMALY":337.5316,"EPHEMERIS_TYPE":0,"CLASSIFICATION_TYPE":"U","NORAD_CAT_ID":67948,"ELEMENT_SET_NO":999,"REV_AT_EPOCH":344,"BSTAR":0.00026334852,"MEAN_MOTION_DOT":0.00055148,"MEAN_MOTION_DDOT":0},{"OBJECT_NAME":"STARLINK-36863","OBJECT_ID":"2026-037T","EPOCH":"2026-03-11T06:00:02.000160","MEAN_MOTION":15.81997383,"ECCENTRICITY":0.00014608,"INCLINATION":42.9984,"RA_OF_ASC_NODE":188.8322,"ARG_OF_PERICENTER":252.1271,"MEAN_ANOMALY":349.4795,"EPHEMERIS_TYPE":0,"CLASSIFICATION_TYPE":"U","NORAD_CAT_ID":67949,"ELEMENT_SET_NO":999,"REV_AT_EPOCH":344,"BSTAR":9.8620103e-5,"MEAN_MOTION_DOT":0.00020263,"MEAN_MOTION_DDOT":0},{"OBJECT_NAME":"STARLINK-36887","OBJECT_ID":"2026-037U","EPOCH":"2026-03-11T06:00:02.000160","MEAN_MOTION":15.81989657,"ECCENTRICITY":0.00016816,"INCLINATION":42.9985,"RA_OF_ASC_NODE":188.8207,"ARG_OF_PERICENTER":288.5231,"MEAN_ANOMALY":317.3616,"EPHEMERIS_TYPE":0,"CLASSIFICATION_TYPE":"U","NORAD_CAT_ID":67950,"ELEMENT_SET_NO":999,"REV_AT_EPOCH":344,"BSTAR":0.00011195891,"MEAN_MOTION_DOT":0.00023075,"MEAN_MOTION_DDOT":0},{"OBJECT_NAME":"STARLINK-36897","OBJECT_ID":"2026-037V","EPOCH":"2026-03-11T06:00:02.000160","MEAN_MOTION":15.81987835,"ECCENTRICITY":0.00010853,"INCLINATION":42.9987,"RA_OF_ASC_NODE":188.8105,"ARG_OF_PERICENTER":278.128,"MEAN_ANOMALY":332.0317,"EPHEMERIS_TYPE":0,"CLASSIFICATION_TYPE":"U","NORAD_CAT_ID":67951,"ELEMENT_SET_NO":999,"REV_AT_EPOCH":344,"BSTAR":0.00017781002,"MEAN_MOTION_DOT":0.00037017,"MEAN_MOTION_DDOT":0},{"OBJECT_NAME":"STARLINK-36381","OBJECT_ID":"2026-037W","EPOCH":"2026-03-11T06:00:02.000160","MEAN_MOTION":15.81984636,"ECCENTRICITY":0.00017343,"INCLINATION":42.9988,"RA_OF_ASC_NODE":188.789,"ARG_OF_PERICENTER":245.7237,"MEAN_ANOMALY":12.9773,"EPHEMERIS_TYPE":0,"CLASSIFICATION_TYPE":"U","NORAD_CAT_ID":67952,"ELEMENT_SET_NO":999,"REV_AT_EPOCH":344,"BSTAR":0.00024502438,"MEAN_MOTION_DOT":0.00051291,"MEAN_MOTION_DDOT":0},{"OBJECT_NAME":"STARLINK-36824","OBJECT_ID":"2026-037X","EPOCH":"2026-03-11T06:00:02.000160","MEAN_MOTION":15.81974162,"ECCENTRICITY":0.00013244,"INCLINATION":42.9985,"RA_OF_ASC_NODE":188.7996,"ARG_OF_PERICENTER":263.3421,"MEAN_ANOMALY":351.0895,"EPHEMERIS_TYPE":0,"CLASSIFICATION_TYPE":"U","NORAD_CAT_ID":67953,"ELEMENT_SET_NO":999,"REV_AT_EPOCH":344,"BSTAR":0.00033698756,"MEAN_MOTION_DOT":0.00070866,"MEAN_MOTION_DDOT":0},{"OBJECT_NAME":"STARLINK-36869","OBJECT_ID":"2026-037Y","EPOCH":"2026-03-11T06:00:02.000160","MEAN_MOTION":15.81987427,"ECCENTRICITY":0.0001951,"INCLINATION":42.9985,"RA_OF_ASC_NODE":188.7777,"ARG_OF_PERICENTER":272.21,"MEAN_ANOMALY":350.7708,"EPHEMERIS_TYPE":0,"CLASSIFICATION_TYPE":"U","NORAD_CAT_ID":67954,"ELEMENT_SET_NO":999,"REV_AT_EPOCH":344,"BSTAR":0.00013650304,"MEAN_MOTION_DOT":0.00028266,"MEAN_MOTION_DDOT":0}]
