STARLINK-36246          
1 67939U 26037H   26070.25002315  .00036580  00000+0  17577-3 0  9996
2 67939  42.9981 188.9398 0001708 245.5852 313.3003 15.81984242  3361
STARLINK-36907          
1 67940U 26037J   26070.25002315  .00019535  00000+0  95199-4 0  9996
2 67940  42.9983 188.9065 0001638 271.9922 299.7115 15.81992291  3442
STARLINK-36927          
1 67941U 26037K   26070.25002315  .00067347  00000+0  32051-3 0  9998
2 67941  42.9983 188.8849 0001659 268.5436 311.6997 15.81973380  3447
STARLINK-36914          
1 67942U 26037L   26070.25002315  .00107379  00000+0  50738-3 0  9991
2 67942  42.9981 188.9286 0001303 258.3043 304.8545 15.81965246  3444
STARLINK-36851          
1 67943U 26037M   26070.25002315  .00076164  00000+0  36184-3 0  9998
2 67943  42.9983 188.9179 0001067 252.7375 314.6940 15.81970152  3441
STARLINK-36892          
1 67944U 26037N   26070.25002315  .00028449  00000+0  13732-3 0  9996
2 67944  42.9982 188.8967 0001161 287.7188 288.2532 15.81995567  3440
STARLINK-36908          
1 67945U 26037P   26070.25002315  .00076788  00000+0  36479-3 0  9999
2 67945  42.9985 188.8746 0001691 252.3344 332.1928 15.81967323  3446
STARLINK-36909          
1 67946U 26037Q   26070.25002315  .00033891  00000+0  16306-3 0  9995
2 67946  42.9983 188.8642 0001496 257.6314 331.1609 15.81987859  3449
STARLINK-36920          
1 67947U 26037R   26070.25002315  .00017965  00000+0  87733-4 0  9993
2 67947  42.9984 188.8530 0001606 252.7357 340.3257 15.82000186  3444
STARLINK-36873          
1 67948U 26037S   26070.25002315  .00055148  00000+0  26335-3 0  9999
2 67948  42.9984 188.8424 0001582 259.8274 337.5316 15.81968289  3446
STARLINK-36863          
1 67949U 26037T   26070.25002315  .00020263  00000+0  98620-4 0  9997
2 67949  42.9984 188.8322 0001460 252.1271 349.4795 15.81997383  3442
STARLINK-36887          
1 67950U 26037U   26070.25002315  .00023075  00000+0  11196-3 0  9995
2 67950  42.9985 188.8207 0001681 288.5231 317.3616 15.81989657  3442
STARLINK-36897          
1 67951U 26037V   26070.25002315  .00037017  00000+0  17781-3 0  9993
2 67951  42.9987 188.8105 0001085 278.1280 332.0317 15.81987835  3447
STARLINK-36381          
1 67952U 26037W   26070.25002315  .00051291  00000+0  24502-3 0  9993
2 67952  42.9988 188.7890 0001734 245.7237  12.9773 15.81984636  3448
STARLINK-36824          
1 67953U 26037X   26070.25002315  .00070866  00000+0  33699-3 0  9990
2 67953  42.9985 188.7996 0001324 263.3421 351.0895 15.81974162  3444
STARLINK-36869          
1 67954U 26037Y   26070.25002315  .00028266  00000+0  13650-3 0  9993
2 67954  42.9985 188.7777 0001951 272.2100 350.7708 15.81987427  3448
